[{"OBJECT_NAME":"KL-BETA A","OBJECT_ID":"2021-070A","EPOCH":"2026-03-09T23:16:25.352832","MEAN_MOTION":13.94374423,"ECCENTRICITY":0.00022434,"INCLINATION":88.9968,"RA_OF_ASC_NODE":229.3018,"ARG_OF_PERICENTER":49.4969,"MEAN_ANOMALY":310.6402,"EPHEMERIS_TYPE":0,"CLASSIFICATION_TYPE":"U","NORAD_CAT_ID":49059,"ELEMENT_SET_NO":999,"REV_AT_EPOCH":23410,"BSTAR":-1.8977282e-5,"MEAN_MOTION_DOT":-1.2e-7,"MEAN_MOTION_DDOT":0},{"OBJECT_NAME":"CZ-4 DEB","OBJECT_ID":"1990-081CV","EPOCH":"2026-02-28T17:42:49.978080","MEAN_MOTION":14.09051219,"ECCENTRICITY":0.00671691,"INCLINATION":98.9124,"RA_OF_ASC_NODE":41.7988,"ARG_OF_PERICENTER":37.6264,"MEAN_ANOMALY":141.1036,"EPHEMERIS_TYPE":0,"CLASSIFICATION_TYPE":"U","NORAD_CAT_ID":37609,"ELEMENT_SET_NO":999,"REV_AT_EPOCH":13739,"BSTAR":0.00020067668,"MEAN_MOTION_DOT":3.11e-6,"MEAN_MOTION_DDOT":0}]
